HULIANWANG DIGUI-17     
1 62977U 25030G   26074.28597844 -.00000096  00000+0  59728-4 0  9997
2 62977  50.0052 212.3548 0000809 193.5839 166.5012 13.29338890 53370
HULIANWANG DIGUI-18     
1 62978U 25030H   26074.27760477 -.00000098  00000+0  56750-4 0  9995
2 62978  50.0057 212.3218 0000851 195.8876 164.1969 13.29338981 53379
HULIANWANG DIGUI-19     
1 62979U 25030J   26074.23561262 -.00000111  00000+0  28002-4 0  9998
2 62979  50.0042 212.7191 0000871 189.8170 170.2685 13.29342093 53361
HULIANWANG DIGUI-20     
1 63687U 25086A   26074.26937310  .00000032  00000+0  41201-4 0  9997
2 63687  86.5121 344.7635 0001907  90.1945 269.9408 13.24421148 42444
HULIANWANG DIGUI-21     
1 63688U 25086B   26074.27685341  .00000031  00000+0  37387-4 0  9992
2 63688  86.5149 344.7930 0001845  93.7958 266.3387 13.24422743 42435
HULIANWANG DIGUI-22     
1 63689U 25086C   26074.28441940  .00000037  00000+0  51036-4 0  9992
2 63689  86.5114 344.6902 0001975  89.4282 270.7078 13.24422420 42430
HULIANWANG DIGUI-23     
1 63690U 25086D   26074.29947168  .00000053  00000+0  90374-4 0  9994
2 63690  86.5156 344.8256 0001877  86.8135 273.3214 13.24423164 42438
HULIANWANG DIGUI-24     
1 63691U 25086E   26074.30709854  .00000066  00000+0  11950-3 0  9991
2 63691  86.5163 344.8504 0001961  89.8414 270.2945 13.24421271 42434
HULIANWANG DIGUI-25     
1 63692U 25086F   26074.23907158  .00000061  00000+0  10765-3 0  9999
2 63692  86.5102 344.6892 0001855  90.7031 269.4316 13.24422718 42422
HULIANWANG DIGUI-26     
1 63693U 25086G   26074.29185129  .00000039  00000+0  57487-4 0  9990
2 63693  86.5150 344.8026 0001987  93.8226 266.3136 13.24422165 42436
HULIANWANG DIGUI-27     
1 63694U 25086H   26074.24671718  .00000068  00000+0  12361-3 0  9993
2 63694  86.5111 344.7221 0001950  89.3527 270.7831 13.24421170 42429
HULIANWANG DIGUI-28     
1 63695U 25086J   26074.26173933  .00000031  00000+0  37580-4 0  9993
2 63695  86.5076 344.6181 0001945  89.0501 271.0856 13.24422438 42426
HULIANWANG DIGUI-29     
1 63696U 25086K   26074.25427188  .00000041  00000+0  61115-4 0  9999
2 63696  86.5104 344.7034 0001850  91.2641 268.8705 13.24421309 42425
HULIANWANG DIGUI-30     
1 64283U 25121A   26074.26161882  .00000059  00000+0  10340-3 0  9991
2 64283  86.4966  45.2418 0001948  74.5616 285.5734 13.24424067 37725
HULIANWANG DIGUI-31     
1 64284U 25121B   26074.25431521  .00000071  00000+0  13129-3 0  9993
2 64284  86.4986  45.2968 0001976  74.6465 285.4887 13.24420256 37726
HULIANWANG DIGUI-32     
1 64285U 25121C   26074.24636158  .00000073  00000+0  13614-3 0  9997
2 64285  86.4927  45.1232 0001989  76.6848 283.4507 13.24425939 37726
