[{"OBJECT_NAME":"HULIANWANG DIGUI-17","OBJECT_ID":"2025-030G","EPOCH":"2026-03-15T06:51:48.537216","MEAN_MOTION":13.2933889,"ECCENTRICITY":8.096e-5,"INCLINATION":50.0052,"RA_OF_ASC_NODE":212.3548,"ARG_OF_PERICENTER":193.5839,"MEAN_ANOMALY":166.5012,"EPHEMERIS_TYPE":0,"CLASSIFICATION_TYPE":"U","NORAD_CAT_ID":62977,"ELEMENT_SET_NO":999,"REV_AT_EPOCH":5337,"BSTAR":5.9728037e-5,"MEAN_MOTION_DOT":-9.6e-7,"MEAN_MOTION_DDOT":0},{"OBJECT_NAME":"HULIANWANG DIGUI-18","OBJECT_ID":"2025-030H","EPOCH":"2026-03-15T06:39:45.052128","MEAN_MOTION":13.29338981,"ECCENTRICITY":8.517e-5,"INCLINATION":50.0057,"RA_OF_ASC_NODE":212.3218,"ARG_OF_PERICENTER":195.8876,"MEAN_ANOMALY":164.1969,"EPHEMERIS_TYPE":0,"CLASSIFICATION_TYPE":"U","NORAD_CAT_ID":62978,"ELEMENT_SET_NO":999,"REV_AT_EPOCH":5337,"BSTAR":5.6750409e-5,"MEAN_MOTION_DOT":-9.8e-7,"MEAN_MOTION_DDOT":0},{"OBJECT_NAME":"HULIANWANG DIGUI-19","OBJECT_ID":"2025-030J","EPOCH":"2026-03-15T05:39:16.930368","MEAN_MOTION":13.29342093,"ECCENTRICITY":8.716e-5,"INCLINATION":50.0042,"RA_OF_ASC_NODE":212.7191,"ARG_OF_PERICENTER":189.817,"MEAN_ANOMALY":170.2685,"EPHEMERIS_TYPE":0,"CLASSIFICATION_TYPE":"U","NORAD_CAT_ID":62979,"ELEMENT_SET_NO":999,"REV_AT_EPOCH":5336,"BSTAR":2.8002464e-5,"MEAN_MOTION_DOT":-1.11e-6,"MEAN_MOTION_DDOT":0},{"OBJECT_NAME":"HULIANWANG DIGUI-20","OBJECT_ID":"2025-086A","EPOCH":"2026-03-15T06:27:53.835840","MEAN_MOTION":13.24421148,"ECCENTRICITY":0.00019077,"INCLINATION":86.5121,"RA_OF_ASC_NODE":344.7635,"ARG_OF_PERICENTER":90.1945,"MEAN_ANOMALY":269.9408,"EPHEMERIS_TYPE":0,"CLASSIFICATION_TYPE":"U","NORAD_CAT_ID":63687,"ELEMENT_SET_NO":999,"REV_AT_EPOCH":4244,"BSTAR":4.1200532e-5,"MEAN_MOTION_DOT":3.2e-7,"MEAN_MOTION_DDOT":0},{"OBJECT_NAME":"HULIANWANG DIGUI-21","OBJECT_ID":"2025-086B","EPOCH":"2026-03-15T06:38:40.134624","MEAN_MOTION":13.24422743,"ECCENTRICITY":0.0001845,"INCLINATION":86.5149,"RA_OF_ASC_NODE":344.793,"ARG_OF_PERICENTER":93.7958,"MEAN_ANOMALY":266.3387,"EPHEMERIS_TYPE":0,"CLASSIFICATION_TYPE":"U","NORAD_CAT_ID":63688,"ELEMENT_SET_NO":999,"REV_AT_EPOCH":4243,"BSTAR":3.7386785e-5,"MEAN_MOTION_DOT":3.1e-7,"MEAN_MOTION_DDOT":0},{"OBJECT_NAME":"HULIANWANG DIGUI-22","OBJECT_ID":"2025-086C","EPOCH":"2026-03-15T06:49:33.836160","MEAN_MOTION":13.2442242,"ECCENTRICITY":0.00019751,"INCLINATION":86.5114,"RA_OF_ASC_NODE":344.6902,"ARG_OF_PERICENTER":89.4282,"MEAN_ANOMALY":270.7078,"EPHEMERIS_TYPE":0,"CLASSIFICATION_TYPE":"U","NORAD_CAT_ID":63689,"ELEMENT_SET_NO":999,"REV_AT_EPOCH":4243,"BSTAR":5.1036341e-5,"MEAN_MOTION_DOT":3.7e-7,"MEAN_MOTION_DDOT":0},{"OBJECT_NAME":"HULIANWANG DIGUI-23","OBJECT_ID":"2025-086D","EPOCH":"2026-03-15T07:11:14.353152","MEAN_MOTION":13.24423164,"ECCENTRICITY":0.00018772,"INCLINATION":86.5156,"RA_OF_ASC_NODE":344.8256,"ARG_OF_PERICENTER":86.8135,"MEAN_ANOMALY":273.3214,"EPHEMERIS_TYPE":0,"CLASSIFICATION_TYPE":"U","NORAD_CAT_ID":63690,"ELEMENT_SET_NO":999,"REV_AT_EPOCH":4243,"BSTAR":9.037402e-5,"MEAN_MOTION_DOT":5.3e-7,"MEAN_MOTION_DDOT":0},{"OBJECT_NAME":"HULIANWANG DIGUI-24","OBJECT_ID":"2025-086E","EPOCH":"2026-03-15T07:22:13.313856","MEAN_MOTION":13.24421271,"ECCENTRICITY":0.00019617,"INCLINATION":86.5163,"RA_OF_ASC_NODE":344.8504,"ARG_OF_PERICENTER":89.8414,"MEAN_ANOMALY":270.2945,"EPHEMERIS_TYPE":0,"CLASSIFICATION_TYPE":"U","NORAD_CAT_ID":63691,"ELEMENT_SET_NO":999,"REV_AT_EPOCH":4243,"BSTAR":0.00011949731,"MEAN_MOTION_DOT":6.6e-7,"MEAN_MOTION_DDOT":0},{"OBJECT_NAME":"HULIANWANG DIGUI-25","OBJECT_ID":"2025-086F","EPOCH":"2026-03-15T05:44:15.784512","MEAN_MOTION":13.24422718,"ECCENTRICITY":0.00018557,"INCLINATION":86.5102,"RA_OF_ASC_NODE":344.6892,"ARG_OF_PERICENTER":90.7031,"MEAN_ANOMALY":269.4316,"EPHEMERIS_TYPE":0,"CLASSIFICATION_TYPE":"U","NORAD_CAT_ID":63692,"ELEMENT_SET_NO":999,"REV_AT_EPOCH":4242,"BSTAR":0.0001076483,"MEAN_MOTION_DOT":6.1e-7,"MEAN_MOTION_DDOT":0},{"OBJECT_NAME":"HULIANWANG DIGUI-26","OBJECT_ID":"2025-086G","EPOCH":"2026-03-15T07:00:15.951456","MEAN_MOTION":13.24422165,"ECCENTRICITY":0.00019876,"INCLINATION":86.515,"RA_OF_ASC_NODE":344.8026,"ARG_OF_PERICENTER":93.8226,"MEAN_ANOMALY":266.3136,"EPHEMERIS_TYPE":0,"CLASSIFICATION_TYPE":"U","NORAD_CAT_ID":63693,"ELEMENT_SET_NO":999,"REV_AT_EPOCH":4243,"BSTAR":5.7486823e-5,"MEAN_MOTION_DOT":3.9e-7,"MEAN_MOTION_DDOT":0},{"OBJECT_NAME":"HULIANWANG DIGUI-27","OBJECT_ID":"2025-086H","EPOCH":"2026-03-15T05:55:16.364352","MEAN_MOTION":13.2442117,"ECCENTRICITY":0.00019505,"INCLINATION":86.5111,"RA_OF_ASC_NODE":344.7221,"ARG_OF_PERICENTER":89.3527,"MEAN_ANOMALY":270.7831,"EPHEMERIS_TYPE":0,"CLASSIFICATION_TYPE":"U","NORAD_CAT_ID":63694,"ELEMENT_SET_NO":999,"REV_AT_EPOCH":4242,"BSTAR":0.000123609,"MEAN_MOTION_DOT":6.8e-7,"MEAN_MOTION_DDOT":0},{"OBJECT_NAME":"HULIANWANG DIGUI-28","OBJECT_ID":"2025-086J","EPOCH":"2026-03-15T06:16:54.278112","MEAN_MOTION":13.24422438,"ECCENTRICITY":0.00019451,"INCLINATION":86.5076,"RA_OF_ASC_NODE":344.6181,"ARG_OF_PERICENTER":89.0501,"MEAN_ANOMALY":271.0856,"EPHEMERIS_TYPE":0,"CLASSIFICATION_TYPE":"U","NORAD_CAT_ID":63695,"ELEMENT_SET_NO":999,"REV_AT_EPOCH":4242,"BSTAR":3.7579704e-5,"MEAN_MOTION_DOT":3.1e-7,"MEAN_MOTION_DDOT":0},{"OBJECT_NAME":"HULIANWANG DIGUI-29","OBJECT_ID":"2025-086K","EPOCH":"2026-03-15T06:06:09.090432","MEAN_MOTION":13.24421309,"ECCENTRICITY":0.00018507,"INCLINATION":86.5104,"RA_OF_ASC_NODE":344.7034,"ARG_OF_PERICENTER":91.2641,"MEAN_ANOMALY":268.8705,"EPHEMERIS_TYPE":0,"CLASSIFICATION_TYPE":"U","NORAD_CAT_ID":63696,"ELEMENT_SET_NO":999,"REV_AT_EPOCH":4242,"BSTAR":6.1115061e-5,"MEAN_MOTION_DOT":4.1e-7,"MEAN_MOTION_DDOT":0},{"OBJECT_NAME":"HULIANWANG DIGUI-30","OBJECT_ID":"2025-121A","EPOCH":"2026-03-15T06:16:43.866048","MEAN_MOTION":13.24424067,"ECCENTRICITY":0.00019487,"INCLINATION":86.4966,"RA_OF_ASC_NODE":45.2418,"ARG_OF_PERICENTER":74.5616,"MEAN_ANOMALY":285.5734,"EPHEMERIS_TYPE":0,"CLASSIFICATION_TYPE":"U","NORAD_CAT_ID":64283,"ELEMENT_SET_NO":999,"REV_AT_EPOCH":3772,"BSTAR":0.00010339974,"MEAN_MOTION_DOT":5.9e-7,"MEAN_MOTION_DDOT":0},{"OBJECT_NAME":"HULIANWANG DIGUI-31","OBJECT_ID":"2025-121B","EPOCH":"2026-03-15T06:06:12.834144","MEAN_MOTION":13.24420256,"ECCENTRICITY":0.00019765,"INCLINATION":86.4986,"RA_OF_ASC_NODE":45.2968,"ARG_OF_PERICENTER":74.6465,"MEAN_ANOMALY":285.4887,"EPHEMERIS_TYPE":0,"CLASSIFICATION_TYPE":"U","NORAD_CAT_ID":64284,"ELEMENT_SET_NO":999,"REV_AT_EPOCH":3772,"BSTAR":0.0001312881,"MEAN_MOTION_DOT":7.1e-7,"MEAN_MOTION_DDOT":0},{"OBJECT_NAME":"HULIANWANG DIGUI-32","OBJECT_ID":"2025-121C","EPOCH":"2026-03-15T05:54:45.640512","MEAN_MOTION":13.24425939,"ECCENTRICITY":0.00019896,"INCLINATION":86.4927,"RA_OF_ASC_NODE":45.1232,"ARG_OF_PERICENTER":76.6848,"MEAN_ANOMALY":283.4507,"EPHEMERIS_TYPE":0,"CLASSIFICATION_TYPE":"U","NORAD_CAT_ID":64285,"ELEMENT_SET_NO":999,"REV_AT_EPOCH":3772,"BSTAR":0.00013614418,"MEAN_MOTION_DOT":7.3e-7,"MEAN_MOTION_DDOT":0}]
